OBJECT_NAME,OBJECT_ID,EPOCH,MEAN_MOTION,ECCENTRICITY,INCLINATION,RA_OF_ASC_NODE,ARG_OF_PERICENTER,MEAN_ANOMALY,EPHEMERIS_TYPE,CLASSIFICATION_TYPE,NORAD_CAT_ID,ELEMENT_SET_NO,REV_AT_EPOCH,BSTAR,MEAN_MOTION_DOT,MEAN_MOTION_DDOT
2026-134G,2026-134G,2026-06-27T06:18:33.011712,15.09699150,.00146356,97.7054,248.4166,240.5382,119.4387,0,U,69544,999,182,.36611363E-3,.5849E-4,0
2026-134H,2026-134H,2026-06-27T06:17:47.626656,15.09765354,.0014473,97.7038,248.4152,241.9500,118.0265,0,U,69545,999,181,.36968907E-3,.5917E-4,0
STARLINK-37880,2026-135A,2026-06-27T06:00:02.000160,15.80771659,.00014178,97.2827,205.8276,88.4178,95.0289,0,U,69546,999,293,.68371043E-3,.132561E-2,0
STARLINK-37881,2026-135B,2026-06-27T00:39:19.637568,15.80972314,.00012192,97.2820,205.5922,99.2066,260.9340,0,U,69547,999,181,.14962772E-2,.298621E-2,0
STARLINK-37265,2026-135C,2026-06-27T00:38:23.925984,15.80957987,.00011033,97.2827,205.5927,150.7973,209.3357,0,U,69548,999,181,.2075754E-2,.419939E-2,0
STARLINK-37871,2026-135D,2026-06-27T00:37:01.210944,15.81049471,.00016125,97.2828,205.5941,132.8996,227.2408,0,U,69549,999,181,.23395557E-2,.478543E-2,0
STARLINK-37865,2026-135E,2026-06-27T00:34:56.307648,15.81046020,.00013638,97.2829,205.5957,137.5585,222.5789,0,U,69550,999,181,.23222491E-2,.474724E-2,0
STARLINK-37862,2026-135F,2026-06-27T00:30:54.207072,15.80914631,.00008079,97.2831,205.5997,117.8249,242.3101,0,U,69551,999,181,.16401084E-2,.327586E-2,0
STARLINK-37861,2026-135G,2026-06-27T00:28:09.857856,15.80906840,.00013548,97.2833,205.6026,100.5134,259.6287,0,U,69552,999,181,.15810034E-2,.315202E-2,0
STARLINK-37859,2026-135H,2026-06-27T01:57:58.237056,15.80903127,.00010559,97.2832,205.6707,53.9570,306.1796,0,U,69553,999,182,.10913251E-2,.214984E-2,0
STARLINK-37860,2026-135J,2026-06-27T00:26:25.194624,15.80912721,.00015158,97.2834,205.6041,90.5823,269.5619,0,U,69554,999,181,.15572457E-2,.310372E-2,0
STARLINK-37858,2026-135K,2026-06-27T00:23:48.291360,15.80909932,.00009075,97.2830,205.6070,104.5633,255.5736,0,U,69555,999,181,.16230668E-2,.323973E-2,0
STARLINK-37927,2026-135L,2026-06-27T01:54:36.766944,15.80865285,.00005861,97.2839,205.6749,112.1262,248.0068,0,U,69556,999,182,.70365294E-3,.137085E-2,0
STARLINK-37929,2026-135M,2026-06-27T01:53:24.761184,15.80863583,.00013436,97.2846,205.6753,73.2047,286.9369,0,U,69557,999,182,.55313387E-3,.107355E-2,0
STARLINK-37954,2026-135N,2026-06-27T01:51:39.143232,15.80909366,.00007696,97.2834,205.6761,73.9963,286.1390,0,U,69558,999,182,.10006017E-2,.196741E-2,0
STARLINK-37958,2026-135P,2026-06-27T01:48:06.195744,15.80908505,.00013215,97.2833,205.6803,114.2659,245.8747,0,U,69559,999,182,.88714877E-3,.173952E-2,0
STARLINK-37950,2026-135Q,2026-06-27T00:16:44.533920,15.80916186,.00011718,97.2836,205.6136,99.5205,260.6196,0,U,69560,999,181,.15974326E-2,.318747E-2,0
STARLINK-37952,2026-135R,2026-06-27T01:45:52.865856,15.80832509,.00026362,97.2835,205.6822,115.4611,244.6930,0,U,69561,999,182,.16217845E-2,.322526E-2,0
STARLINK-37935,2026-135S,2026-06-27T07:49:22.786752,15.80973619,.00007979,97.2834,205.9522,112.5537,247.5816,0,U,69562,999,186,.18453884E-2,.371492E-2,0
STARLINK-37936,2026-135T,2026-06-27T07:39:16.620768,15.80952381,.00015482,97.2842,205.9608,101.7896,258.3546,0,U,69563,999,186,.16429448E-2,.328753E-2,0
STARLINK-37932,2026-135U,2026-06-27T01:34:09.100704,15.80889544,.00012905,97.2829,205.6938,88.8472,271.2944,0,U,69564,999,182,.67231747E-3,.131029E-2,0
STARLINK-37916,2026-135V,2026-06-27T01:33:21.459744,15.80900978,.00006899,97.2843,205.6963,44.8476,315.2848,0,U,69565,999,182,.12351897E-2,.244145E-2,0
STARLINK-37909,2026-135W,2026-06-27T07:28:53.074560,15.80936150,.00006313,97.2824,205.9718,65.0368,295.0966,0,U,69566,999,186,.14969696E-2,.298262E-2,0
STARLINK-37934,2026-135X,2026-06-27T01:28:53.177376,15.80904488,.00011825,97.2831,205.6994,27.7971,332.3360,0,U,69567,999,182,.97043343E-3,.190627E-2,0
STARLINK-37938,2026-135Y,2026-06-27T07:29:58.650432,15.80908819,.00011367,97.2830,205.9709,138.8024,221.3330,0,U,69568,999,186,.1048125E-2,.206314E-2,0
STARLINK-37924,2026-135Z,2026-06-27T05:54:51.187392,15.80895948,.00012042,97.2832,205.9064,91.4907,268.6499,0,U,69569,999,185,.95965673E-3,.188387E-2,0
SHIJIAN-31 (SJ-31),2026-136A,2026-06-26T20:36:33.425280,1.92223544,.694107,63.4776,355.0815,171.7702,212.4513,0,U,69570,999,27,0,.134E-5,0
GUOWANG OBJECT A,2026-137A,2026-06-27T06:56:19.804704,13.89812848,.00126209,49.9991,215.1583,258.7612,101.1867,0,U,69572,999,142,.1126982E-3,-.7E-7,0
GUOWANG OBJECT B,2026-137B,2026-06-27T06:52:04.075392,13.89804803,.0011841,49.9988,215.1418,258.0699,101.8872,0,U,69573,999,143,.14633721E-3,.35E-6,0
