2026-134G               
1 69544U 26134G   26178.26288208  .00005849  00000+0  36611-3 0  9999
2 69544  97.7054 248.4166 0014635 240.5382 119.4387 15.09699150  1825
2026-134H               
1 69545U 26134H   26178.26235679  .00005917  00000+0  36969-3 0  9996
2 69545  97.7038 248.4152 0014473 241.9500 118.0265 15.09765354  1819
STARLINK-37880          
1 69546U 26135A   26178.25002315  .00132561  00000+0  68371-3 0  9994
2 69546  97.2827 205.8276 0001417  88.4178  95.0289 15.80771659  2932
STARLINK-37881          
1 69547U 26135B   26178.02731062  .00298621  00000+0  14963-2 0  9995
2 69547  97.2820 205.5922 0001219  99.2066 260.9340 15.80972314  1815
STARLINK-37265          
1 69548U 26135C   26178.02666581  .00419939  00000+0  20758-2 0  9995
2 69548  97.2827 205.5927 0001103 150.7973 209.3357 15.80957987  1814
STARLINK-37871          
1 69549U 26135D   26178.02570846  .00478543  00000+0  23396-2 0  9991
2 69549  97.2828 205.5941 0001612 132.8996 227.2408 15.81049471  1810
STARLINK-37865          
1 69550U 26135E   26178.02426282  .00474724  00000+0  23222-2 0  9992
2 69550  97.2829 205.5957 0001363 137.5585 222.5789 15.81046020  1816
STARLINK-37862          
1 69551U 26135F   26178.02146073  .00327586  00000+0  16401-2 0  9994
2 69551  97.2831 205.5997 0000807 117.8249 242.3101 15.80914631  1813
STARLINK-37861          
1 69552U 26135G   26178.01955854  .00315202  00000+0  15810-2 0  9994
2 69552  97.2833 205.6026 0001354 100.5134 259.6287 15.80906840  1819
STARLINK-37859          
1 69553U 26135H   26178.08192404  .00214984  00000+0  10913-2 0  9990
2 69553  97.2832 205.6707 0001055  53.9570 306.1796 15.80903127  1827
STARLINK-37860          
1 69554U 26135J   26178.01834716  .00310372  00000+0  15572-2 0  9997
2 69554  97.2834 205.6041 0001515  90.5823 269.5619 15.80912721  1815
STARLINK-37858          
1 69555U 26135K   26178.01653115  .00323973  00000+0  16231-2 0  9994
2 69555  97.2830 205.6070 0000907 104.5633 255.5736 15.80909932  1818
STARLINK-37927          
1 69556U 26135L   26178.07959221  .00137085  00000+0  70365-3 0  9994
2 69556  97.2839 205.6749 0000586 112.1262 248.0068 15.80865285  1825
STARLINK-37929          
1 69557U 26135M   26178.07875881  .00107355  00000+0  55313-3 0  9997
2 69557  97.2846 205.6753 0001343  73.2047 286.9369 15.80863583  1823
STARLINK-37954          
1 69558U 26135N   26178.07753638  .00196741  00000+0  10006-2 0  9999
2 69558  97.2834 205.6761 0000769  73.9963 286.1390 15.80909366  1821
STARLINK-37958          
1 69559U 26135P   26178.07507171  .00173952  00000+0  88715-3 0  9991
2 69559  97.2833 205.6803 0001321 114.2659 245.8747 15.80908505  1826
STARLINK-37950          
1 69560U 26135Q   26178.01162655  .00318747  00000+0  15974-2 0  9990
2 69560  97.2836 205.6136 0001171  99.5205 260.6196 15.80916186  1811
STARLINK-37952          
1 69561U 26135R   26178.07352854  .00322526  00000+0  16218-2 0  9991
2 69561  97.2835 205.6822 0002636 115.4611 244.6930 15.80832509  1824
STARLINK-37935          
1 69562U 26135S   26178.32595818  .00371492  00000+0  18454-2 0  9999
2 69562  97.2834 205.9522 0000797 112.5537 247.5816 15.80973619  1862
STARLINK-37936          
1 69563U 26135T   26178.31894237  .00328753  00000+0  16429-2 0  9998
2 69563  97.2842 205.9608 0001548 101.7896 258.3546 15.80952381  1863
STARLINK-37932          
1 69564U 26135U   26178.06538311  .00131029  00000+0  67232-3 0  9996
2 69564  97.2829 205.6938 0001290  88.8472 271.2944 15.80889544  1823
STARLINK-37916          
1 69565U 26135V   26178.06483171  .00244145  00000+0  12352-2 0  9996
2 69565  97.2843 205.6963 0000689  44.8476 315.2848 15.80900978  1822
STARLINK-37909          
1 69566U 26135W   26178.31172540  .00298262  00000+0  14970-2 0  9997
2 69566  97.2824 205.9718 0000631  65.0368 295.0966 15.80936150  1866
STARLINK-37934          
1 69567U 26135X   26178.06172659  .00190627  00000+0  97043-3 0  9990
2 69567  97.2831 205.6994 0001182  27.7971 332.3360 15.80904488  1823
STARLINK-37938          
1 69568U 26135Y   26178.31248438  .00206314  00000+0  10481-2 0  9999
2 69568  97.2830 205.9709 0001136 138.8024 221.3330 15.80908819  1862
STARLINK-37924          
1 69569U 26135Z   26178.24642578  .00188387  00000+0  95966-3 0  9996
2 69569  97.2832 205.9064 0001204  91.4907 268.6499 15.80895948  1856
SHIJIAN-31 (SJ-31)      
1 69570U 26136A   26177.85872020  .00000134  00000+0  00000+0 0  9996
2 69570  63.4776 355.0815 6941070 171.7702 212.4513  1.92223544   270
GUOWANG OBJECT A        
1 69572U 26137A   26178.28911811 -.00000007  00000+0  11270-3 0  9994
2 69572  49.9991 215.1583 0012620 258.7612 101.1867 13.89812848  1422
GUOWANG OBJECT B        
1 69573U 26137B   26178.28615828  .00000035  00000+0  14634-3 0  9991
2 69573  49.9988 215.1418 0011841 258.0699 101.8872 13.89804803  1434
